NORAD_CAT_ID,OBJECT_NAME,OBJECT_TYPE,EPOCH,MEAN_MOTION,ECCENTRICITY,INCLINATION,RA_OF_ASC_NODE,ARG_OF_PERICENTER,MEAN_ANOMALY,BSTAR,MEAN_MOTION_DOT,MEAN_MOTION_DDOT,TLE_LINE0,TLE_LINE1,TLE_LINE2,SEMIMAJOR_AXIS,PERIOD,APOGEE,PERIGEE,DECAYED
54058.0,STARLINK-5167,PAYLOAD,2024-07-13 09:07:37,15.08838541,0.0001354,53.2162,176.98,94.1872,265.9275,1.712e-05,-1.5e-07,0.0,0 STARLINK-5167,1 54058U 22136H   24195.38029288 -.00000015  00000-0  17120-4 0  9999,2 54058  53.2162 176.9800 0001354  94.1872 265.9275 15.08838541 96091,6917.885,95.438,540.687,538.813,0.0
54058.0,STARLINK-5167,PAYLOAD,2024-07-13 21:50:41,15.08848656,0.0001324,53.2167,174.601,92.8895,267.2248,0.00011961,1.617e-05,0.0,0 STARLINK-5167,1 54058U 22136H   24195.91020204  .00001617  00000-0  11961-3 0  9991,2 54058  53.2167 174.6010 0001324  92.8895 267.2248 15.08848656 96173,6917.854,95.437,540.635,538.803,0.0
54058.0,STARLINK-5167,PAYLOAD,2024-07-14 07:22:59,15.08855012,0.0001382,53.2173,172.8174,95.4927,264.6223,0.00019595,2.833e-05,0.0,0 STARLINK-5167,1 54058U 22136H   24196.30763415  .00002833  00000-0  19595-3 0  9995,2 54058  53.2173 172.8174 0001382  95.4927 264.6223 15.08855012 95751,6917.835,95.437,540.656,538.743,0.0
54058.0,STARLINK-5167,PAYLOAD,2024-07-14 15:19:54,15.08863259,0.0001288,53.2171,171.3298,93.0683,267.0456,0.00021273,3.101e-05,0.0,0 STARLINK-5167,1 54058U 22136H   24196.63882474  .00003101  00000-0  21273-3 0  9993,2 54058  53.2171 171.3298 0001288  93.0683 267.0456 15.08863259 96284,6917.809,95.436,540.565,538.783,0.0
54058.0,STARLINK-5167,PAYLOAD,2024-07-15 04:03:02,15.08826038,0.0001394,53.2172,168.9513,84.7246,275.3905,-0.00010254,-1.919e-05,0.0,0 STARLINK-5167,1 54058U 22136H   24197.16878089 -.00001919  00000-0 -10254-3 0  9993,2 54058  53.2172 168.9513 0001394  84.7246 275.3905 15.08826038 96361,6917.923,95.438,540.752,538.824,0.0
54058.0,STARLINK-5167,PAYLOAD,2024-07-15 07:13:48,15.08829942,0.0001371,53.2172,168.3572,86.2287,273.8862,-6.5039e-05,-1.323e-05,0.0,0 STARLINK-5167,1 54058U 22136H   24197.30125850 -.00001323  00000-0 -65039-4 0  9991,2 54058  53.2172 168.3572 0001371  86.2287 273.8862 15.08829942 95908,6917.911,95.438,540.725,538.828,0.0
54058.0,STARLINK-5167,PAYLOAD,2024-07-15 15:10:44,15.0883666,0.0001339,53.2173,166.87,84.2041,275.9104,-3.143e-05,-7.88e-06,0.0,0 STARLINK-5167,1 54058U 22136H   24197.63245488 -.00000788  00000-0 -31430-4 0  9999,2 54058  53.2173 166.8700 0001339  84.2041 275.9104 15.08836660 96431,6917.891,95.438,540.682,538.829,0.0
54058.0,STARLINK-5167,PAYLOAD,2024-07-16 05:29:11,15.08838976,0.0001385,53.2158,164.1925,79.7516,280.3632,-4.8562e-05,-1.061e-05,0.0,0 STARLINK-5167,1 54058U 22136H   24198.22860947 -.00001061  00000-0 -48562-4 0  9997,2 54058  53.2158 164.1925 0001385  79.7516 280.3632 15.08838976 96046,6917.884,95.438,540.707,538.79,0.0
54058.0,STARLINK-5167,PAYLOAD,2024-07-17 03:44:36,15.08827125,0.000134,53.2147,160.0235,104.8398,255.2743,0.00013832,1.913e-05,0.0,0 STARLINK-5167,1 54058U 22136H   24199.15598053  .00001913  00000-0  13832-3 0  9991,2 54058  53.2147 160.0235 0001340 104.8398 255.2743 15.08827125 96668,6917.92,95.438,540.712,538.858,0.0
54058.0,STARLINK-5167,PAYLOAD,2024-07-17 06:55:23,15.08830403,0.0001342,53.2149,159.4299,99.1748,260.9396,0.00018912,2.722e-05,0.0,0 STARLINK-5167,1 54058U 22136H   24199.28846079  .00002722  00000-0  18912-3 0  9992,2 54058  53.2149 159.4299 0001342  99.1748 260.9396 15.08830403 96209,6917.91,95.438,540.703,538.846,0.0
54058.0,STARLINK-5167,PAYLOAD,2024-07-17 14:52:18,15.08847257,0.0001361,53.2155,157.9464,94.1007,266.0141,0.00047844,7.336e-05,0.0,0 STARLINK-5167,1 54058U 22136H   24199.61965738  .00007336  00000-0  47844-3 0  9995,2 54058  53.2155 157.9464 0001361  94.1007 266.0141 15.08847257 96735,6917.858,95.437,540.665,538.782,0.0
54058.0,STARLINK-5167,PAYLOAD,2024-07-18 03:35:23,15.08845903,0.0001436,53.2156,155.5685,118.9815,241.1322,0.0004069,6.195e-05,0.0,0 STARLINK-5167,1 54058U 22136H   24200.14957887  .00006195  00000-0  40690-3 0  9996,2 54058  53.2156 155.5685 0001436 118.9815 241.1322 15.08845903 96810,6917.862,95.437,540.721,538.734,0.0
54058.0,STARLINK-5167,PAYLOAD,2024-07-18 06:46:09,15.0884637,0.0001478,53.2151,154.9713,123.0191,237.0943,0.0003532,5.339e-05,0.0,0 STARLINK-5167,1 54058U 22136H   24200.28205722  .00005339  00000-0  35320-3 0  9998,2 54058  53.2151 154.9713 0001478 123.0191 237.0943 15.08846370 96351,6917.861,95.437,540.748,538.703,0.0
54058.0,STARLINK-5167,PAYLOAD,2024-07-19 03:26:10,15.08843346,0.0001694,53.2169,151.1024,123.3599,236.7556,0.0001697,2.414e-05,0.0,0 STARLINK-5167,1 54058U 22136H   24201.14317890  .00002414  00000-0  16970-3 0  9995,2 54058  53.2169 151.1024 0001694 123.3599 236.7556 15.08843346 96962,6917.87,95.437,540.907,538.563,0.0
54058.0,STARLINK-5167,PAYLOAD,2024-07-19 06:36:57,15.08841893,0.0001659,53.2173,150.5097,116.9927,243.1235,7.8515e-05,9.62e-06,0.0,0 STARLINK-5167,1 54058U 22136H   24201.27566004  .00000962  00000-0  78515-4 0  9992,2 54058  53.2173 150.5097 0001659 116.9927 243.1235 15.08841893 96505,6917.875,95.437,540.887,538.592,0.0
54058.0,STARLINK-5167,PAYLOAD,2024-07-20 03:16:58,15.08833649,0.000135,53.2161,146.6468,90.6181,269.4966,0.00031441,4.719e-05,0.0,0 STARLINK-5167,1 54058U 22136H   24202.13678635  .00004719  00000-0  31441-3 0  9992,2 54058  53.2161 146.6468 0001350  90.6181 269.4966 15.08833649 97118,6917.9,95.438,540.699,538.831,0.0
54058.0,STARLINK-5167,PAYLOAD,2024-07-20 12:49:15,15.08852973,0.0001456,53.2178,144.8657,104.0459,256.0695,0.00011748,1.583e-05,0.0,0 STARLINK-5167,1 54058U 22136H   24202.53421174  .00001583  00000-0  11748-3 0  9994,2 54058  53.2178 144.8657 0001456 104.0459 256.0695 15.08852973 97179,6917.841,95.437,540.713,538.698,0.0
54058.0,STARLINK-5167,PAYLOAD,2024-07-21 03:07:45,15.08833604,0.0001306,53.2158,142.1915,97.3601,262.754,-2.6455e-05,-7.09e-06,0.0,0 STARLINK-5167,1 54058U 22136H   24203.13039049 -.00000709  00000-0 -26455-4 0  9990,2 54058  53.2158 142.1915 0001306  97.3601 262.7540 15.08833604 97265,6917.9,95.438,540.668,538.861,0.0
54058.0,STARLINK-5167,PAYLOAD,2024-07-21 06:18:31,15.08838633,0.0001361,53.2163,141.5934,87.1476,272.9672,7.3814e-05,8.87e-06,0.0,0 STARLINK-5167,1 54058U 22136H   24203.26286467  .00000887  00000-0  73814-4 0  9998,2 54058  53.2163 141.5934 0001361  87.1476 272.9672 15.08838633 97281,6917.885,95.438,540.691,538.808,0.0
54058.0,STARLINK-5167,PAYLOAD,2024-07-22 02:58:32,15.08840426,0.0001351,53.215,137.7272,84.9957,275.1189,8.5597e-05,1.075e-05,0.0,0 STARLINK-5167,1 54058U 22136H   24204.12398654  .00001075  00000-0  85597-4 0  9997,2 54058  53.2150 137.7272 0001351  84.9957 275.1189 15.08840426 96939,6917.879,95.438,540.679,538.809,0.0
54058.0,STARLINK-5167,PAYLOAD,2024-07-23 02:49:19,15.08847241,0.0001392,53.2154,133.2673,85.2984,274.8167,0.00022234,3.253e-05,0.0,0 STARLINK-5167,1 54058U 22136H   24205.11758436  .00003253  00000-0  22234-3 0  9993,2 54058  53.2154 133.2673 0001392  85.2984 274.8167 15.08847241 97562,6917.858,95.437,540.686,538.76,0.0
54058.0,STARLINK-5167,PAYLOAD,2024-07-23 12:21:37,15.08863171,0.0001663,53.2172,131.4814,67.7536,292.3632,0.00033567,5.062e-05,0.0,0 STARLINK-5167,1 54058U 22136H   24205.51501609  .00005062  00000-0  33567-3 0  9996,2 54058  53.2172 131.4814 0001663  67.7536 292.3632 15.08863171 97627,6917.81,95.436,540.825,538.524,0.0
54058.0,STARLINK-5167,PAYLOAD,2024-07-23 18:43:10,15.08857208,0.0003186,53.2135,130.3034,65.9035,294.229,0.00040542,6.173e-05,0.0,0 STARLINK-5167,1 54058U 22136H   24205.77998271  .00006173  00000-0  40542-3 0  9994,2 54058  53.2135 130.3034 0003186  65.9035 294.2290 15.08857208 97663,6917.828,95.436,541.897,537.489,0.0
54058.0,STARLINK-5167,PAYLOAD,2024-07-24 04:15:29,15.08843612,0.0001308,53.2166,128.5047,94.8156,265.2986,0.00015507,2.181e-05,0.0,0 STARLINK-5167,1 54058U 22136H   24206.17742745  .00002181  00000-0  15507-3 0  9990,2 54058  53.2166 128.5047 0001308  94.8156 265.2986 15.08843612 97720,6917.869,95.437,540.639,538.829,0.0
54058.0,STARLINK-5167,PAYLOAD,2024-07-25 04:06:16,15.08849874,0.000126,53.2157,124.0452,96.2631,263.8504,0.00041469,6.32e-05,0.0,0 STARLINK-5167,1 54058U 22136H   24207.17102633  .00006320  00000-0  41469-3 0  9992,2 54058  53.2157 124.0452 0001260  96.2631 263.8504 15.08849874 97391,6917.85,95.437,540.587,538.844,0.0
54058.0,STARLINK-5167,PAYLOAD,2024-07-26 03:57:04,15.08830859,0.0001257,53.2159,119.5864,106.2039,253.9092,9.2922e-05,1.191e-05,0.0,0 STARLINK-5167,1 54058U 22136H   24208.16463547  .00001191  00000-0  92922-4 0  9998,2 54058  53.2159 119.5864 0001257 106.2039 253.9092 15.08830859 98025,6917.908,95.438,540.643,538.904,0.0
54058.0,STARLINK-5167,PAYLOAD,2024-07-27 22:52:28,15.08838045,0.0001142,53.2154,111.5615,97.5614,262.5507,0.00018309,2.627e-05,0.0,0 STARLINK-5167,1 54058U 22136H   24209.95311218  .00002627  00000-0  18309-3 0  9994,2 54058  53.2154 111.5615 0001142  97.5614 262.5507 15.08838045 97818,6917.886,95.438,540.541,538.961,0.0
54058.0,STARLINK-5167,PAYLOAD,2024-07-28 00:27:52,15.08829466,0.0001176,53.2147,111.2636,88.9889,271.1238,4.0321e-05,3.54e-06,0.0,0 STARLINK-5167,1 54058U 22136H   24210.01935582  .00000354  00000-0  40321-4 0  9994,2 54058  53.2147 111.2636 0001176  88.9889 271.1238 15.08829466 98304,6917.913,95.438,540.591,538.964,0.0
54058.0,STARLINK-5167,PAYLOAD,2024-07-28 10:00:10,15.08837202,0.0001369,53.2155,109.4799,91.5249,268.59,7.2962e-05,8.73e-06,0.0,0 STARLINK-5167,1 54058U 22136H   24210.41679003  .00000873  00000-0  72962-4 0  9993,2 54058  53.2155 109.4799 0001369  91.5249 268.5900 15.08837202 98365,6917.889,95.438,540.701,538.807,0.0
54058.0,STARLINK-5167,PAYLOAD,2024-07-28 21:07:53,15.08824665,0.0001682,53.2188,107.4016,108.7313,251.3862,0.00015612,2.196e-05,0.0,0 STARLINK-5167,1 54058U 22136H   24210.88047814  .00002196  00000-0  15612-3 0  9991,2 54058  53.2188 107.4016 0001682 108.7313 251.3862 15.08824665 98436,6917.927,95.439,540.956,538.629,0.0
